[{"OBJECT_NAME":"GSAT0101 (GALILEO-PFM)","OBJECT_ID":"2011-060A","EPOCH":"2026-01-31T04:10:35.097312","MEAN_MOTION":1.70475518,"ECCENTRICITY":0.00037857,"INCLINATION":57.0394,"RA_OF_ASC_NODE":345.4798,"ARG_OF_PERICENTER":342.0012,"MEAN_ANOMALY":17.9687,"EPHEMERIS_TYPE":0,"CLASSIFICATION_TYPE":"U","NORAD_CAT_ID":37846,"ELEMENT_SET_NO":999,"REV_AT_EPOCH":8878,"BSTAR":0,"MEAN_MOTION_DOT":-1.01e-6,"MEAN_MOTION_DDOT":0},{"OBJECT_NAME":"GSAT0102 (GALILEO-FM2)","OBJECT_ID":"2011-060B","EPOCH":"2026-01-28T04:07:33.328992","MEAN_MOTION":1.70475712,"ECCENTRICITY":0.00054988,"INCLINATION":57.0412,"RA_OF_ASC_NODE":345.5616,"ARG_OF_PERICENTER":327.3528,"MEAN_ANOMALY":35.6656,"EPHEMERIS_TYPE":0,"CLASSIFICATION_TYPE":"U","NORAD_CAT_ID":37847,"ELEMENT_SET_NO":999,"REV_AT_EPOCH":8874,"BSTAR":0,"MEAN_MOTION_DOT":-8.8e-7,"MEAN_MOTION_DDOT":0},{"OBJECT_NAME":"GSAT0103 (GALILEO-FM3)","OBJECT_ID":"2012-055A","EPOCH":"2026-01-31T19:13:26.784480","MEAN_MOTION":1.70473281,"ECCENTRICITY":0.00044085,"INCLINATION":55.7195,"RA_OF_ASC_NODE":105.29,"ARG_OF_PERICENTER":278.9692,"MEAN_ANOMALY":81.0319,"EPHEMERIS_TYPE":0,"CLASSIFICATION_TYPE":"U","NORAD_CAT_ID":38857,"ELEMENT_SET_NO":999,"REV_AT_EPOCH":8268,"BSTAR":0,"MEAN_MOTION_DOT":-2.2e-7,"MEAN_MOTION_DDOT":0},{"OBJECT_NAME":"GSAT0201 (GALILEO 5)","OBJECT_ID":"2014-050A","EPOCH":"2026-01-28T19:40:18.554016","MEAN_MOTION":1.85519698,"ECCENTRICITY":0.16530595,"INCLINATION":49.0237,"RA_OF_ASC_NODE":279.1402,"ARG_OF_PERICENTER":174.0427,"MEAN_ANOMALY":188.2485,"EPHEMERIS_TYPE":0,"CLASSIFICATION_TYPE":"U","NORAD_CAT_ID":40128,"ELEMENT_SET_NO":999,"REV_AT_EPOCH":7573,"BSTAR":0,"MEAN_MOTION_DOT":-8.0e-8,"MEAN_MOTION_DDOT":0},{"OBJECT_NAME":"GSAT0202 (GALILEO 6)","OBJECT_ID":"2014-050B","EPOCH":"2026-01-27T23:56:46.044960","MEAN_MOTION":1.85520465,"ECCENTRICITY":0.16537004,"INCLINATION":49.0402,"RA_OF_ASC_NODE":278.258,"ARG_OF_PERICENTER":174.7431,"MEAN_ANOMALY":187.2862,"EPHEMERIS_TYPE":0,"CLASSIFICATION_TYPE":"U","NORAD_CAT_ID":40129,"ELEMENT_SET_NO":999,"REV_AT_EPOCH":7788,"BSTAR":0,"MEAN_MOTION_DOT":-8.0e-8,"MEAN_MOTION_DDOT":0},{"OBJECT_NAME":"GSAT0203 (GALILEO 7)","OBJECT_ID":"2015-017A","EPOCH":"2026-01-29T18:41:35.002176","MEAN_MOTION":1.70475545,"ECCENTRICITY":0.00058834,"INCLINATION":56.833,"RA_OF_ASC_NODE":345.3711,"ARG_OF_PERICENTER":286.7119,"MEAN_ANOMALY":73.2094,"EPHEMERIS_TYPE":0,"CLASSIFICATION_TYPE":"U","NORAD_CAT_ID":40544,"ELEMENT_SET_NO":999,"REV_AT_EPOCH":6684,"BSTAR":0,"MEAN_MOTION_DOT":-9.6e-7,"MEAN_MOTION_DDOT":0},{"OBJECT_NAME":"GSAT0204 (GALILEO 8)","OBJECT_ID":"2015-017B","EPOCH":"2026-01-29T10:44:54.829248","MEAN_MOTION":1.70475161,"ECCENTRICITY":0.00053484,"INCLINATION":56.8397,"RA_OF_ASC_NODE":345.398,"ARG_OF_PERICENTER":277.549,"MEAN_ANOMALY":82.377,"EPHEMERIS_TYPE":0,"CLASSIFICATION_TYPE":"U","NORAD_CAT_ID":40545,"ELEMENT_SET_NO":999,"REV_AT_EPOCH":2988,"BSTAR":0,"MEAN_MOTION_DOT":-9.4e-7,"MEAN_MOTION_DDOT":0},{"OBJECT_NAME":"GSAT0205 (GALILEO 9)","OBJECT_ID":"2015-045A","EPOCH":"2026-01-03T23:50:17.748672","MEAN_MOTION":1.70473089,"ECCENTRICITY":0.00063531,"INCLINATION":54.9968,"RA_OF_ASC_NODE":226.1424,"ARG_OF_PERICENTER":44.5343,"MEAN_ANOMALY":315.6036,"EPHEMERIS_TYPE":0,"CLASSIFICATION_TYPE":"U","NORAD_CAT_ID":40889,"ELEMENT_SET_NO":999,"REV_AT_EPOCH":6421,"BSTAR":0,"MEAN_MOTION_DOT":6.2e-7,"MEAN_MOTION_DDOT":0},{"OBJECT_NAME":"GSAT0206 (GALILEO 10)","OBJECT_ID":"2015-045B","EPOCH":"2026-01-30T14:38:35.564640","MEAN_MOTION":1.7047333,"ECCENTRICITY":0.00042971,"INCLINATION":54.9888,"RA_OF_ASC_NODE":225.4008,"ARG_OF_PERICENTER":48.3894,"MEAN_ANOMALY":311.6781,"EPHEMERIS_TYPE":0,"CLASSIFICATION_TYPE":"U","NORAD_CAT_ID":40890,"ELEMENT_SET_NO":999,"REV_AT_EPOCH":6469,"BSTAR":0,"MEAN_MOTION_DOT":7.5e-7,"MEAN_MOTION_DDOT":0},{"OBJECT_NAME":"GSAT0209 (GALILEO 12)","OBJECT_ID":"2015-079A","EPOCH":"2026-01-30T04:35:54.644352","MEAN_MOTION":1.70474516,"ECCENTRICITY":0.0003694,"INCLINATION":55.7391,"RA_OF_ASC_NODE":105.0491,"ARG_OF_PERICENTER":326.2571,"MEAN_ANOMALY":33.7611,"EPHEMERIS_TYPE":0,"CLASSIFICATION_TYPE":"U","NORAD_CAT_ID":41174,"ELEMENT_SET_NO":999,"REV_AT_EPOCH":6242,"BSTAR":0,"MEAN_MOTION_DOT":-2.7e-7,"MEAN_MOTION_DDOT":0},{"OBJECT_NAME":"GSAT0208 (GALILEO 11)","OBJECT_ID":"2015-079B","EPOCH":"2026-01-31T14:02:22.254720","MEAN_MOTION":1.70474389,"ECCENTRICITY":0.00032079,"INCLINATION":55.7383,"RA_OF_ASC_NODE":105.0079,"ARG_OF_PERICENTER":326.0394,"MEAN_ANOMALY":33.9902,"EPHEMERIS_TYPE":0,"CLASSIFICATION_TYPE":"U","NORAD_CAT_ID":41175,"ELEMENT_SET_NO":999,"REV_AT_EPOCH":6286,"BSTAR":0,"MEAN_MOTION_DOT":-2.2e-7,"MEAN_MOTION_DDOT":0},{"OBJECT_NAME":"GSAT0211 (GALILEO 14)","OBJECT_ID":"2016-030A","EPOCH":"2026-01-29T22:47:01.499424","MEAN_MOTION":1.7047344,"ECCENTRICITY":0.00040665,"INCLINATION":55.1388,"RA_OF_ASC_NODE":225.4945,"ARG_OF_PERICENTER":27.1098,"MEAN_ANOMALY":332.9464,"EPHEMERIS_TYPE":0,"CLASSIFICATION_TYPE":"U","NORAD_CAT_ID":41549,"ELEMENT_SET_NO":999,"REV_AT_EPOCH":6031,"BSTAR":0,"MEAN_MOTION_DOT":8.1e-7,"MEAN_MOTION_DDOT":0},{"OBJECT_NAME":"GSAT0210 (GALILEO 13)","OBJECT_ID":"2016-030B","EPOCH":"2026-02-01T13:16:13.715328","MEAN_MOTION":1.70473755,"ECCENTRICITY":7.902e-5,"INCLINATION":55.1373,"RA_OF_ASC_NODE":225.4208,"ARG_OF_PERICENTER":177.0901,"MEAN_ANOMALY":182.9255,"EPHEMERIS_TYPE":0,"CLASSIFICATION_TYPE":"U","NORAD_CAT_ID":41550,"ELEMENT_SET_NO":999,"REV_AT_EPOCH":6035,"BSTAR":0,"MEAN_MOTION_DOT":5.6e-7,"MEAN_MOTION_DDOT":0},{"OBJECT_NAME":"GSAT0207 (GALILEO 15)","OBJECT_ID":"2016-069A","EPOCH":"2026-01-31T01:42:56.119104","MEAN_MOTION":1.70474411,"ECCENTRICITY":0.00040107,"INCLINATION":55.4094,"RA_OF_ASC_NODE":104.8824,"ARG_OF_PERICENTER":308.3923,"MEAN_ANOMALY":51.6185,"EPHEMERIS_TYPE":0,"CLASSIFICATION_TYPE":"U","NORAD_CAT_ID":41859,"ELEMENT_SET_NO":999,"REV_AT_EPOCH":5706,"BSTAR":0,"MEAN_MOTION_DOT":-2.5e-7,"MEAN_MOTION_DDOT":0},{"OBJECT_NAME":"GSAT0212 (GALILEO 16)","OBJECT_ID":"2016-069B","EPOCH":"2026-02-01T16:26:10.085280","MEAN_MOTION":1.70474658,"ECCENTRICITY":0.0002754,"INCLINATION":55.408,"RA_OF_ASC_NODE":104.8328,"ARG_OF_PERICENTER":343.6767,"MEAN_ANOMALY":16.3713,"EPHEMERIS_TYPE":0,"CLASSIFICATION_TYPE":"U","NORAD_CAT_ID":41860,"ELEMENT_SET_NO":999,"REV_AT_EPOCH":5734,"BSTAR":0,"MEAN_MOTION_DOT":-1.9e-7,"MEAN_MOTION_DDOT":0},{"OBJECT_NAME":"GSAT0213 (GALILEO 17)","OBJECT_ID":"2016-069C","EPOCH":"2026-02-01T11:10:40.025856","MEAN_MOTION":1.70474953,"ECCENTRICITY":0.00043785,"INCLINATION":55.4103,"RA_OF_ASC_NODE":104.8466,"ARG_OF_PERICENTER":286.8241,"MEAN_ANOMALY":73.1834,"EPHEMERIS_TYPE":0,"CLASSIFICATION_TYPE":"U","NORAD_CAT_ID":41861,"ELEMENT_SET_NO":999,"REV_AT_EPOCH":5720,"BSTAR":0,"MEAN_MOTION_DOT":-2.0e-7,"MEAN_MOTION_DDOT":0},{"OBJECT_NAME":"GSAT0214 (GALILEO 18)","OBJECT_ID":"2016-069D","EPOCH":"2026-01-30T20:26:54.437280","MEAN_MOTION":1.70474819,"ECCENTRICITY":0.000323,"INCLINATION":55.4077,"RA_OF_ASC_NODE":104.8843,"ARG_OF_PERICENTER":291.3477,"MEAN_ANOMALY":68.6631,"EPHEMERIS_TYPE":0,"CLASSIFICATION_TYPE":"U","NORAD_CAT_ID":41862,"ELEMENT_SET_NO":999,"REV_AT_EPOCH":5730,"BSTAR":0,"MEAN_MOTION_DOT":-2.5e-7,"MEAN_MOTION_DDOT":0}]
